KUIPER-00157            
1 65970U 25228Z   25329.08456064  .00034978  00000+0  10200-2 0  9995
2 65970  51.8791 105.7259 0006183 313.3428  46.7042 15.35014379  7706
